[{"ORDINAL":"1","COMMENT":"GENERATED VIA SPACETRACK.ORG API","ORIGINATOR":"JSPOC","NORAD_CAT_ID":"39755","OBJECT_NAME":"DELTA 4 DEB","OBJECT_TYPE":"DEBRIS","CLASSIFICATION_TYPE":"U","INTLDES":"14026D","EPOCH":"2014-05-27 03:53:29","EPOCH_MICROSECONDS":"271840","MEAN_MOTION":"8.96798715","ECCENTRICITY":"0.3279472","INCLINATION":"52.6967","RA_OF_ASC_NODE":"119.7568","ARG_OF_PERICENTER":"91.1278","MEAN_ANOMALY":"0.6947","EPHEMERIS_TYPE":"0","ELEMENT_SET_NO":"3","REV_AT_EPOCH":"77","BSTAR":"0.16819","MEAN_MOTION_DOT":"0.20390814","MEAN_MOTION_DDOT":"1.0038e-06","FILE":"1689683","TLE_LINE0":"0 DELTA 4 DEB","TLE_LINE1":"1 39755U 14026D   14147.16214435  .20390814  10038-5  16819+0 0    39","TLE_LINE2":"2 39755 052.6967 119.7568 3279472 091.1278 000.6947 08.96798715   775","OBJECT_ID":"2014-026D","OBJECT_NUMBER":"39755"},{"ORDINAL":"4","COMMENT":"GENERATED VIA SPACETRACK.ORG API","ORIGINATOR":"JSPOC","NORAD_CAT_ID":"39756","OBJECT_NAME":"DELTA 4 DEB","OBJECT_TYPE":"DEBRIS","CLASSIFICATION_TYPE":"U","INTLDES":"14026E","EPOCH":"2014-05-26 10:29:26","EPOCH_MICROSECONDS":"100960","MEAN_MOTION":"12.65623276","ECCENTRICITY":"0.1548402","INCLINATION":"52.6682","RA_OF_ASC_NODE":"111.919","ARG_OF_PERICENTER":"96.1464","MEAN_ANOMALY":"0.3492","EPHEMERIS_TYPE":"0","ELEMENT_SET_NO":"5","REV_AT_EPOCH":"99","BSTAR":"0.086509","MEAN_MOTION_DOT":"0.2353421","MEAN_MOTION_DDOT":"5.6783e-06","FILE":"1688364","TLE_LINE0":"0 DELTA 4 DEB","TLE_LINE1":"1 39756U 14026E   14146.43710765  .23534210  56783-5  86509-1 0    53","TLE_LINE2":"2 39756 052.6682 111.9190 1548402 096.1464 000.3492 12.65623276   993","OBJECT_ID":"2014-026E","OBJECT_NUMBER":"39756"},{"ORDINAL":"5","COMMENT":"GENERATED VIA SPACETRACK.ORG API","ORIGINATOR":"JSPOC","NORAD_CAT_ID":"39756","OBJECT_NAME":"DELTA 4 DEB","OBJECT_TYPE":"DEBRIS","CLASSIFICATION_TYPE":"U","INTLDES":"14026E","EPOCH":"2014-05-26 04:47:13","EPOCH_MICROSECONDS":"248959","MEAN_MOTION":"12.54700542","ECCENTRICITY":"0.1591277","INCLINATION":"52.6337","RA_OF_ASC_NODE":"112.5887","ARG_OF_PERICENTER":"96.0015","MEAN_ANOMALY":"2.2044","EPHEMERIS_TYPE":"0","ELEMENT_SET_NO":"4","REV_AT_EPOCH":"96","BSTAR":"0.10158","MEAN_MOTION_DOT":"0.23668952","MEAN_MOTION_DDOT":"5.5519e-06","FILE":"1688026","TLE_LINE0":"0 DELTA 4 DEB","TLE_LINE1":"1 39756U 14026E   14146.19945890  .23668952  55519-5  10158+0 0    46","TLE_LINE2":"2 39756 052.6337 112.5887 1591277 096.0015 002.2044 12.54700542   960","OBJECT_ID":"2014-026E","OBJECT_NUMBER":"39756"},{"ORDINAL":"1","COMMENT":"GENERATED VIA SPACETRACK.ORG API","ORIGINATOR":"JSPOC","NORAD_CAT_ID":"39754","OBJECT_NAME":"DELTA 4 DEB","OBJECT_TYPE":"DEBRIS","CLASSIFICATION_TYPE":"U","INTLDES":"14026C","EPOCH":"2014-05-23 22:23:25","EPOCH_MICROSECONDS":"843200","MEAN_MOTION":"9.46702704","ECCENTRICITY":"0.3026775","INCLINATION":"52.7106","RA_OF_ASC_NODE":"122.7947","ARG_OF_PERICENTER":"88.6525","MEAN_ANOMALY":"315.8134","EPHEMERIS_TYPE":"0","ELEMENT_SET_NO":"3","REV_AT_EPOCH":"51","BSTAR":"0.097807","MEAN_MOTION_DOT":"0.11260207","MEAN_MOTION_DDOT":"0","FILE":"1690521","TLE_LINE0":"0 DELTA 4 DEB","TLE_LINE1":"1 39754U 14026C   14143.93293800  .11260207  00000-0  97807-1 0    35","TLE_LINE2":"2 39754 052.7106 122.7947 3026775 088.6525 315.8134 09.46702704   517","OBJECT_ID":"2014-026C","OBJECT_NUMBER":"39754"},{"ORDINAL":"2","COMMENT":"GENERATED VIA SPACETRACK.ORG API","ORIGINATOR":"JSPOC","NORAD_CAT_ID":"39755","OBJECT_NAME":"DELTA 4 DEB","OBJECT_TYPE":"DEBRIS","CLASSIFICATION_TYPE":"U","INTLDES":"14026D","EPOCH":"2014-05-23 05:55:17","EPOCH_MICROSECONDS":"705279","MEAN_MOTION":"8.05493148","ECCENTRICITY":"0.3739756","INCLINATION":"52.6878","RA_OF_ASC_NODE":"125.7277","ARG_OF_PERICENTER":"86.8782","MEAN_ANOMALY":"7.627","EPHEMERIS_TYPE":"0","ELEMENT_SET_NO":"2","REV_AT_EPOCH":"46","BSTAR":"0.10023","MEAN_MOTION_DOT":"0.08910244","MEAN_MOTION_DDOT":"0","FILE":"1686574","TLE_LINE0":"0 DELTA 4 DEB","TLE_LINE1":"1 39755U 14026D   14143.24673270  .08910244  00000-0  10023+0 0    24","TLE_LINE2":"2 39755 052.6878 125.7277 3739756 086.8782 007.6270 08.05493148   461","OBJECT_ID":"2014-026D","OBJECT_NUMBER":"39755"},{"ORDINAL":"2","COMMENT":"GENERATED VIA SPACETRACK.ORG API","ORIGINATOR":"JSPOC","NORAD_CAT_ID":"39754","OBJECT_NAME":"DELTA 4 DEB","OBJECT_TYPE":"DEBRIS","CLASSIFICATION_TYPE":"U","INTLDES":"14026C","EPOCH":"2014-05-23 04:50:02","EPOCH_MICROSECONDS":"916960","MEAN_MOTION":"9.27841682","ECCENTRICITY":"0.3118406","INCLINATION":"52.774","RA_OF_ASC_NODE":"123.6842","ARG_OF_PERICENTER":"88.1789","MEAN_ANOMALY":"4.3222","EPHEMERIS_TYPE":"0","ELEMENT_SET_NO":"2","REV_AT_EPOCH":"44","BSTAR":"0.084704","MEAN_MOTION_DOT":"0.09078565","MEAN_MOTION_DDOT":"0","FILE":"1686530","TLE_LINE0":"0 DELTA 4 DEB","TLE_LINE1":"1 39754U 14026C   14143.20142265  .09078565  00000-0  84704-1 0    25","TLE_LINE2":"2 39754 052.7740 123.6842 3118406 088.1789 004.3222 09.27841682   443","OBJECT_ID":"2014-026C","OBJECT_NUMBER":"39754"},{"ORDINAL":"1","COMMENT":"GENERATED VIA SPACETRACK.ORG API","ORIGINATOR":"JSPOC","NORAD_CAT_ID":"39759","OBJECT_NAME":"DELTA 4 DEB","OBJECT_TYPE":"DEBRIS","CLASSIFICATION_TYPE":"U","INTLDES":"14026H","EPOCH":"2014-05-23 03:36:00","EPOCH_MICROSECONDS":"127008","MEAN_MOTION":"15.10679041","ECCENTRICITY":"0.0510439","INCLINATION":"52.5715","RA_OF_ASC_NODE":"113.3157","ARG_OF_PERICENTER":"90.2225","MEAN_ANOMALY":"6.2395","EPHEMERIS_TYPE":"0","ELEMENT_SET_NO":"2","REV_AT_EPOCH":"77","BSTAR":"0.18505","MEAN_MOTION_DOT":"0.99999999","MEAN_MOTION_DDOT":"9.2159e-06","FILE":"1686512","TLE_LINE0":"0 DELTA 4 DEB","TLE_LINE1":"1 39759U 14026H   14143.15000147  .99999999  92159-5  18505+0 0    23","TLE_LINE2":"2 39759 052.5715 113.3157 0510439 090.2225 006.2395 15.10679041   776","OBJECT_ID":"2014-026H","OBJECT_NUMBER":"39759"},{"ORDINAL":"2","COMMENT":"GENERATED VIA SPACETRACK.ORG API","ORIGINATOR":"JSPOC","NORAD_CAT_ID":"39759","OBJECT_NAME":"DELTA 4 DEB","OBJECT_TYPE":"DEBRIS","CLASSIFICATION_TYPE":"U","INTLDES":"14026H","EPOCH":"2014-05-22 08:47:39","EPOCH_MICROSECONDS":"887231","MEAN_MOTION":"13.73382279","ECCENTRICITY":"0.1072097","INCLINATION":"52.5704","RA_OF_ASC_NODE":"116.4437","ARG_OF_PERICENTER":"92.6402","MEAN_ANOMALY":"304.0699","EPHEMERIS_TYPE":"0","ELEMENT_SET_NO":"1","REV_AT_EPOCH":"66","BSTAR":"0.13162","MEAN_MOTION_DOT":"0.42827591","MEAN_MOTION_DDOT":"7.137e-06","FILE":"1686177","TLE_LINE0":"0 DELTA 4 DEB","TLE_LINE1":"1 39759U 14026H   14142.36643388  .42827591  71370-5  13162+0 0    16","TLE_LINE2":"2 39759 052.5704 116.4437 1072097 092.6402 304.0699 13.73382279   661","OBJECT_ID":"2014-026H","OBJECT_NUMBER":"39759"},{"ORDINAL":"3","COMMENT":"GENERATED VIA SPACETRACK.ORG API","ORIGINATOR":"JSPOC","NORAD_CAT_ID":"39755","OBJECT_NAME":"DELTA 4 DEB","OBJECT_TYPE":"DEBRIS","CLASSIFICATION_TYPE":"U","INTLDES":"14026D","EPOCH":"2014-05-22 05:23:05","EPOCH_MICROSECONDS":"438399","MEAN_MOTION":"7.89573259","ECCENTRICITY":"0.3820315","INCLINATION":"52.6893","RA_OF_ASC_NODE":"127.136","ARG_OF_PERICENTER":"85.7986","MEAN_ANOMALY":"313.4177","EPHEMERIS_TYPE":"0","ELEMENT_SET_NO":"1","REV_AT_EPOCH":"38","BSTAR":"0.08529","MEAN_MOTION_DOT":"0.06860802","MEAN_MOTION_DDOT":"0","FILE":"1686176","TLE_LINE0":"0 DELTA 4 DEB","TLE_LINE1":"1 39755U 14026D   14142.22436850  .06860802  00000-0  85290-1 0    13","TLE_LINE2":"2 39755 052.6893 127.1360 3820315 085.7986 313.4177 07.89573259   381","OBJECT_ID":"2014-026D","OBJECT_NUMBER":"39755"},{"ORDINAL":"1","COMMENT":"GENERATED VIA SPACETRACK.ORG API","ORIGINATOR":"JSPOC","NORAD_CAT_ID":"39758","OBJECT_NAME":"DELTA 4 DEB","OBJECT_TYPE":"DEBRIS","CLASSIFICATION_TYPE":"U","INTLDES":"14026G","EPOCH":"2014-05-22 03:48:56","EPOCH_MICROSECONDS":"636639","MEAN_MOTION":"11.00851904","ECCENTRICITY":"0.2284238","INCLINATION":"52.6241","RA_OF_ASC_NODE":"123.0258","ARG_OF_PERICENTER":"90.5327","MEAN_ANOMALY":"315.8619","EPHEMERIS_TYPE":"0","ELEMENT_SET_NO":"1","REV_AT_EPOCH":"48","BSTAR":"0.28862","MEAN_MOTION_DOT":"0.39958755","MEAN_MOTION_DDOT":"3.2018e-06","FILE":"1686175","TLE_LINE0":"0 DELTA 4 DEB","TLE_LINE1":"1 39758U 14026G   14142.15898885  .39958755  32018-5  28862+0 0    18","TLE_LINE2":"2 39758 052.6241 123.0258 2284238 090.5327 315.8619 11.00851904   484","OBJECT_ID":"2014-026G","OBJECT_NUMBER":"39758"},{"ORDINAL":"3","COMMENT":"GENERATED VIA SPACETRACK.ORG API","ORIGINATOR":"JSPOC","NORAD_CAT_ID":"39754","OBJECT_NAME":"DELTA 4 DEB","OBJECT_TYPE":"DEBRIS","CLASSIFICATION_TYPE":"U","INTLDES":"14026C","EPOCH":"2014-05-22 02:19:30","EPOCH_MICROSECONDS":"267839","MEAN_MOTION":"9.07794867","ECCENTRICITY":"0.3212686","INCLINATION":"52.7577","RA_OF_ASC_NODE":"125.6059","ARG_OF_PERICENTER":"86.7814","MEAN_ANOMALY":"314.8713","EPHEMERIS_TYPE":"0","ELEMENT_SET_NO":"1","REV_AT_EPOCH":"34","BSTAR":"0.068509","MEAN_MOTION_DOT":"0.06156728","MEAN_MOTION_DDOT":"0","FILE":"1686173","TLE_LINE0":"0 DELTA 4 DEB","TLE_LINE1":"1 39754U 14026C   14142.09687810  .06156728  00000-0  68509-1 0    10","TLE_LINE2":"2 39754 052.7577 125.6059 3212686 086.7814 314.8713 09.07794867   344","OBJECT_ID":"2014-026C","OBJECT_NUMBER":"39754"},{"ORDINAL":"1","COMMENT":"GENERATED VIA SPACETRACK.ORG API","ORIGINATOR":"JSPOC","NORAD_CAT_ID":"39760","OBJECT_NAME":"DELTA 4 DEB","OBJECT_TYPE":"DEBRIS","CLASSIFICATION_TYPE":"U","INTLDES":"14026J","EPOCH":"2014-05-21 19:29:27","EPOCH_MICROSECONDS":"437567","MEAN_MOTION":"14.72346877","ECCENTRICITY":"0.0649859","INCLINATION":"52.5766","RA_OF_ASC_NODE":"116.2227","ARG_OF_PERICENTER":"100.5927","MEAN_ANOMALY":"282.4177","EPHEMERIS_TYPE":"0","ELEMENT_SET_NO":"1","REV_AT_EPOCH":"60","BSTAR":"0.086631","MEAN_MOTION_DOT":"0.39389611","MEAN_MOTION_DDOT":"8.2723e-06","FILE":"1686178","TLE_LINE0":"0 DELTA 4 DEB","TLE_LINE1":"1 39760U 14026J   14141.81212312  .39389611  82723-5  86631-1 0    15","TLE_LINE2":"2 39760 052.5766 116.2227 0649859 100.5927 282.4177 14.72346877   600","OBJECT_ID":"2014-026J","OBJECT_NUMBER":"39760"}]